[{"OBJECT_NAME":"CSG-1","OBJECT_ID":"2019-092A","EPOCH":"2026-03-09T22:42:03.650112","MEAN_MOTION":14.82148881,"ECCENTRICITY":0.00014012,"INCLINATION":97.8868,"RA_OF_ASC_NODE":253.98,"ARG_OF_PERICENTER":84.9007,"MEAN_ANOMALY":275.2366,"EPHEMERIS_TYPE":0,"CLASSIFICATION_TYPE":"U","NORAD_CAT_ID":44873,"ELEMENT_SET_NO":999,"REV_AT_EPOCH":33677,"BSTAR":0.00010295004,"MEAN_MOTION_DOT":7.67e-6,"MEAN_MOTION_DDOT":0},{"OBJECT_NAME":"CZ-6A DEB","OBJECT_ID":"2022-151MY","EPOCH":"2026-03-09T19:34:42.650688","MEAN_MOTION":14.82668784,"ECCENTRICITY":0.00502544,"INCLINATION":98.8906,"RA_OF_ASC_NODE":177.2931,"ARG_OF_PERICENTER":195.0973,"MEAN_ANOMALY":164.8741,"EPHEMERIS_TYPE":0,"CLASSIFICATION_TYPE":"U","NORAD_CAT_ID":54598,"ELEMENT_SET_NO":999,"REV_AT_EPOCH":17593,"BSTAR":0.0051036329,"MEAN_MOTION_DOT":0.00042239,"MEAN_MOTION_DDOT":0}]
